[{"OBJECT_NAME":"NETSAT-2","OBJECT_ID":"2020-068X","EPOCH":"2026-03-09T22:24:39.507840","MEAN_MOTION":15.41593314,"ECCENTRICITY":0.00044399,"INCLINATION":97.8659,"RA_OF_ASC_NODE":69.0583,"ARG_OF_PERICENTER":21.2445,"MEAN_ANOMALY":338.8984,"EPHEMERIS_TYPE":0,"CLASSIFICATION_TYPE":"U","NORAD_CAT_ID":46507,"ELEMENT_SET_NO":999,"REV_AT_EPOCH":30042,"BSTAR":0.00064543032,"MEAN_MOTION_DOT":0.00027118,"MEAN_MOTION_DDOT":0},{"OBJECT_NAME":"STARLINK-34695","OBJECT_ID":"2025-157N","EPOCH":"2026-03-09T22:15:17.480160","MEAN_MOTION":15.39856376,"ECCENTRICITY":8.968e-5,"INCLINATION":53.161,"RA_OF_ASC_NODE":342.1869,"ARG_OF_PERICENTER":113.2486,"MEAN_ANOMALY":246.8614,"EPHEMERIS_TYPE":0,"CLASSIFICATION_TYPE":"U","NORAD_CAT_ID":64916,"ELEMENT_SET_NO":999,"REV_AT_EPOCH":3619,"BSTAR":0.0019591216,"MEAN_MOTION_DOT":0.000794,"MEAN_MOTION_DDOT":0}]
